NORAD_CAT_ID,OBJECT_NAME,OBJECT_TYPE,EPOCH,MEAN_MOTION,ECCENTRICITY,INCLINATION,RA_OF_ASC_NODE,ARG_OF_PERICENTER,MEAN_ANOMALY,BSTAR,MEAN_MOTION_DOT,MEAN_MOTION_DDOT,TLE_LINE0,TLE_LINE1,TLE_LINE2,SEMIMAJOR_AXIS,PERIOD,APOGEE,PERIGEE,DECAYED
52372.0,STARLINK-3796,PAYLOAD,2024-07-02 20:28:35,15.08835979,0.0001358,53.2176,69.23,90.2621,269.8527,-0.00021973,-3.783e-05,0.0,0 STARLINK-3796,1 52372U 22045AT  24184.85318555 -.00003783  00000-0 -21973-3 0  9999,2 52372  53.2176  69.2300 0001358  90.2621 269.8527 15.08835979123091,6917.893,95.438,540.697,538.818,0.0
52372.0,STARLINK-3796,PAYLOAD,2024-07-02 22:03:58,15.08838181,0.0001453,53.218,68.9329,90.8114,269.3045,-0.00014816,-2.645e-05,0.0,0 STARLINK-3796,1 52372U 22045AT  24184.91942538 -.00002645  00000-0 -14816-3 0  9994,2 52372  53.2180  68.9329 0001453  90.8114 269.3045 15.08838181123102,6917.886,95.438,540.756,538.746,0.0
52372.0,STARLINK-3796,PAYLOAD,2024-07-03 09:11:39,15.08853588,0.0001287,53.2168,66.8514,84.7255,275.3884,0.00045287,6.929e-05,0.0,0 STARLINK-3796,1 52372U 22045AT  24185.38310052  .00006929  00000-0  45287-3 0  9999,2 52372  53.2168  66.8514 0001287  84.7255 275.3884 15.08853588123177,6917.839,95.437,540.594,538.814,0.0
52372.0,STARLINK-3796,PAYLOAD,2024-07-03 20:19:22,15.08834407,0.0001202,53.2151,64.767,82.9347,277.1782,7.8129e-06,-1.64e-06,0.0,0 STARLINK-3796,1 52372U 22045AT  24185.84678681 -.00000164  00000-0  78129-5 0  9994,2 52372  53.2151  64.7670 0001202  82.9347 277.1782 15.08834407123242,6917.897,95.438,540.594,538.931,0.0
52372.0,STARLINK-3796,PAYLOAD,2024-07-03 21:54:45,15.08837193,0.0001329,53.2164,64.4717,90.8517,269.2627,0.00015211,2.134e-05,0.0,0 STARLINK-3796,1 52372U 22045AT  24185.91302627  .00002134  00000-0  15211-3 0  9995,2 52372  53.2164  64.4717 0001329  90.8517 269.2627 15.08837193123258,6917.889,95.438,540.673,538.835,0.0
52372.0,STARLINK-3796,PAYLOAD,2024-07-04 01:05:31,15.08844874,0.0001259,53.2162,63.8766,88.8078,271.3058,0.00079278,0.00012353,0.0,0 STARLINK-3796,1 52372U 22045AT  24186.04550590  .00012353  00000-0  79278-3 0  9991,2 52372  53.2162  63.8766 0001259  88.8078 271.3058 15.08844874123272,6917.865,95.437,540.601,538.86,0.0
52372.0,STARLINK-3796,PAYLOAD,2024-07-04 09:02:27,15.08860587,0.0001264,53.2153,62.387,73.806,286.3071,0.0010801,0.00016953,0.0,0 STARLINK-3796,1 52372U 22045AT  24186.37670221  .00016953  00000-0  10801-2 0  9997,2 52372  53.2153  62.3870 0001264  73.8060 286.3071 15.08860587123329,6917.817,95.436,540.557,538.808,0.0
52372.0,STARLINK-3796,PAYLOAD,2024-07-04 20:10:09,15.08847835,0.0001266,53.2152,60.3084,83.6802,276.4334,0.0013724,0.00021626,0.0,0 STARLINK-3796,1 52372U 22045AT  24186.84038568  .00021626  00000-0  13724-2 0  9991,2 52372  53.2152  60.3084 0001266  83.6802 276.4334 15.08847835123398,6917.856,95.437,540.597,538.846,0.0
52372.0,STARLINK-3796,PAYLOAD,2024-07-04 21:45:32,15.08850232,0.0001228,53.2156,60.0114,76.5622,283.5507,0.0014155,0.00022318,0.0,0 STARLINK-3796,1 52372U 22045AT  24186.90662551  .00022318  00000-0  14155-2 0  9991,2 52372  53.2156  60.0114 0001228  76.5622 283.5507 15.08850232123400,6917.849,95.437,540.564,538.865,0.0
52372.0,STARLINK-3796,PAYLOAD,2024-07-05 08:53:14,15.08859482,0.0001242,53.2155,57.9295,76.5614,283.5516,0.0012846,0.00020226,0.0,0 STARLINK-3796,1 52372U 22045AT  24187.37030225  .00020226  00000-0  12846-2 0  9991,2 52372  53.2155  57.9295 0001242  76.5614 283.5516 15.08859482123474,6917.821,95.436,540.545,538.827,0.0
52372.0,STARLINK-3796,PAYLOAD,2024-07-05 21:36:19,15.08846628,0.0001436,53.2165,55.5474,99.2477,260.8677,0.0012017,0.00018892,0.0,0 STARLINK-3796,1 52372U 22045AT  24187.90022541  .00018892  00000-0  12017-2 0  9998,2 52372  53.2165  55.5474 0001436  99.2477 260.8677 15.08846628123555,6917.86,95.437,540.719,538.732,0.0
52372.0,STARLINK-3796,PAYLOAD,2024-07-06 08:44:01,15.08850751,0.000124,53.2164,53.4672,96.3984,263.715,0.0010603,0.00016632,0.0,0 STARLINK-3796,1 52372U 22045AT  24188.36390464  .00016632  00000-0  10603-2 0  9990,2 52372  53.2164  53.4672 0001240  96.3984 263.7150 15.08850751123623,6917.848,95.437,540.57,538.855,0.0
52372.0,STARLINK-3796,PAYLOAD,2024-07-06 21:27:06,15.08835168,0.0001433,53.2167,51.0893,91.8071,268.3085,0.00015421,2.167e-05,0.0,0 STARLINK-3796,1 52372U 22045AT  24188.89382979  .00002167  00000-0  15421-3 0  9992,2 52372  53.2167  51.0893 0001433  91.8071 268.3085 15.08835168123708,6917.895,95.438,540.751,538.769,0.0
52372.0,STARLINK-3796,PAYLOAD,2024-07-07 00:37:53,15.08836015,0.0001525,53.2175,50.494,94.9958,265.1208,0.00019512,2.818e-05,0.0,0 STARLINK-3796,1 52372U 22045AT  24189.02631052  .00002818  00000-0  19512-3 0  9995,2 52372  53.2175  50.4940 0001525  94.9958 265.1208 15.08836015123729,6917.893,95.438,540.813,538.703,0.0
52372.0,STARLINK-3796,PAYLOAD,2024-07-07 21:17:54,15.08844674,0.0001477,53.2173,46.6283,95.5939,264.5222,0.00043692,6.673e-05,0.0,0 STARLINK-3796,1 52372U 22045AT  24189.88743139  .00006673  00000-0  43692-3 0  9998,2 52372  53.2173  46.6283 0001477  95.5939 264.5222 15.08844674123859,6917.866,95.437,540.753,538.709,0.0
52372.0,STARLINK-3796,PAYLOAD,2024-07-08 21:08:40,15.08847797,0.000143,53.2174,42.168,94.4529,265.6627,0.00026549,3.941e-05,0.0,0 STARLINK-3796,1 52372U 22045AT  24190.88102887  .00003941  00000-0  26549-3 0  9996,2 52372  53.2174  42.1680 0001430  94.4529 265.6627 15.08847797124002,6917.857,95.437,540.711,538.732,0.0
52372.0,STARLINK-3796,PAYLOAD,2024-07-09 13:02:32,15.08840525,0.0001996,53.2169,39.1957,84.6178,275.5042,3.1689e-05,2.16e-06,0.0,0 STARLINK-3796,1 52372U 22045AT  24191.54343092  .00000216  00000-0  31689-4 0  9999,2 52372  53.2169  39.1957 0001996  84.6178 275.5042 15.08840525124101,6917.879,95.438,541.125,538.363,0.0
52372.0,STARLINK-3796,PAYLOAD,2024-07-09 20:59:28,15.08831408,0.0001515,53.2176,37.7101,100.1092,260.0071,-0.00014097,-2.53e-05,0.0,0 STARLINK-3796,1 52372U 22045AT  24191.87463373 -.00002530  00000-0 -14097-3 0  9996,2 52372  53.2176  37.7101 0001515 100.1092 260.0071 15.08831408124156,6917.907,95.438,540.82,538.724,0.0
52372.0,STARLINK-3796,PAYLOAD,2024-07-10 12:53:19,15.08838096,0.0001423,53.2179,34.7368,97.7074,262.408,8.8225e-05,1.116e-05,0.0,0 STARLINK-3796,1 52372U 22045AT  24192.53703397  .00001116  00000-0  88225-4 0  9995,2 52372  53.2179  34.7368 0001423  97.7074 262.4080 15.08838096124257,6917.886,95.438,540.736,538.767,0.0
52372.0,STARLINK-3796,PAYLOAD,2024-07-10 20:50:15,15.08838213,0.0001401,53.2178,33.2499,96.4861,263.6291,9.6496e-05,1.248e-05,0.0,0 STARLINK-3796,1 52372U 22045AT  24192.86823502  .00001248  00000-0  96496-4 0  9997,2 52372  53.2178  33.2499 0001401  96.4861 263.6291 15.08838213124305,6917.886,95.438,540.72,538.782,0.0
52372.0,STARLINK-3796,PAYLOAD,2024-07-12 12:34:53,15.08838766,0.0001401,53.2162,25.8156,87.1715,272.9437,9.2572e-05,1.186e-05,0.0,0 STARLINK-3796,1 52372U 22045AT  24194.52423610  .00001186  00000-0  92572-4 0  9990,2 52372  53.2162  25.8156 0001401  87.1715 272.9437 15.08838766124555,6917.884,95.438,540.718,538.78,0.0
52372.0,STARLINK-3796,PAYLOAD,2024-07-12 18:56:26,15.08842316,0.0001468,53.216,24.6261,86.0872,274.0287,0.00015681,2.209e-05,0.0,0 STARLINK-3796,1 52372U 22045AT  24194.78919545  .00002209  00000-0  15681-3 0  9997,2 52372  53.2160  24.6261 0001468  86.0872 274.0287 15.08842316124598,6917.873,95.437,540.754,538.723,0.0
52372.0,STARLINK-3796,PAYLOAD,2024-07-13 12:25:41,15.08842946,0.0001792,53.2172,21.3519,94.0109,266.1088,0.00019218,2.772e-05,0.0,0 STARLINK-3796,1 52372U 22045AT  24195.51783567  .00002772  00000-0  19218-3 0  9997,2 52372  53.2172  21.3519 0001792  94.0109 266.1088 15.08842946124706,6917.871,95.437,540.976,538.497,0.0
52372.0,STARLINK-3796,PAYLOAD,2024-07-13 18:47:13,15.08844088,0.0001542,53.2168,20.1625,100.1964,259.9202,0.00022704,3.328e-05,0.0,0 STARLINK-3796,1 52372U 22045AT  24195.78279462  .00003328  00000-0  22704-3 0  9992,2 52372  53.2168  20.1625 0001542 100.1964 259.9202 15.08844088124748,6917.868,95.437,540.8,538.666,0.0
52372.0,STARLINK-3796,PAYLOAD,2024-07-13 21:57:59,15.08847593,0.0001457,53.2183,19.5682,106.3829,253.7323,0.00035664,5.394e-05,0.0,0 STARLINK-3796,1 52372U 22045AT  24195.91527466  .00005394  00000-0  35664-3 0  9991,2 52372  53.2183  19.5682 0001457 106.3829 253.7323 15.08847593124765,6917.857,95.437,540.73,538.714,0.0
52372.0,STARLINK-3796,PAYLOAD,2024-07-14 12:16:27,15.0884727,0.0001455,53.2177,16.8917,101.6324,258.4832,0.00036747,5.566e-05,0.0,0 STARLINK-3796,1 52372U 22045AT  24196.51143502  .00005566  00000-0  36747-3 0  9997,2 52372  53.2177  16.8917 0001455 101.6324 258.4832 15.08847270124854,6917.858,95.437,540.73,538.717,0.0
52372.0,STARLINK-3796,PAYLOAD,2024-07-14 18:38:00,15.08847994,0.0001435,53.2184,15.703,98.7261,261.3894,0.00031054,4.659e-05,0.0,0 STARLINK-3796,1 52372U 22045AT  24196.77639434  .00004659  00000-0  31054-3 0  9997,2 52372  53.2184  15.7030 0001435  98.7261 261.3894 15.08847994124898,6917.856,95.437,540.714,538.728,0.0
52372.0,STARLINK-3796,PAYLOAD,2024-07-15 12:07:15,15.08844172,0.0001404,53.2182,12.4315,98.6492,261.4659,0.00020548,2.984e-05,0.0,0 STARLINK-3796,1 52372U 22045AT  24197.50503478  .00002984  00000-0  20548-3 0  9992,2 52372  53.2182  12.4315 0001404  98.6492 261.4659 15.08844172125006,6917.868,95.437,540.704,538.761,0.0
52372.0,STARLINK-3796,PAYLOAD,2024-07-15 18:28:48,15.08832797,0.0001158,53.2172,11.2423,93.3173,266.7952,0.00016532,2.344e-05,0.0,0 STARLINK-3796,1 52372U 22045AT  24197.77000043  .00002344  00000-0  16532-3 0  9999,2 52372  53.2172  11.2423 0001158  93.3173 266.7952 15.08832797125044,6917.902,95.438,540.568,538.966,0.0
52372.0,STARLINK-3796,PAYLOAD,2024-07-16 04:01:05,15.08850388,0.0001241,53.218,9.4596,92.1603,267.9532,0.00014405,2.006e-05,0.0,0 STARLINK-3796,1 52372U 22045AT  24198.16742947  .00002006  00000-0  14405-3 0  9991,2 52372  53.2180   9.4596 0001241  92.1603 267.9532 15.08850388125101,6917.849,95.437,540.572,538.855,0.0
